STARLINK-37079          
1 68186U 26050V   26084.79563776  .00259149  00000+0  12710-2 0  9994
2 68186  53.1600 200.9567 0000847  72.1834 287.9281 15.80983657  3023
STARLINK-37006          
1 68187U 26050W   26084.73165799  .00146210  00000+0  73084-3 0  9998
2 68187  53.1594 201.2691 0001123  85.0560 275.0591 15.80902488  3019
STARLINK-36340          
1 68188U 26050X   26084.73092343  .00283648  00000+0  13880-2 0  9997
2 68188  53.1587 201.2634 0001263  81.1800 278.9366 15.80965634  2910
STARLINK-36305          
1 68189U 26050Y   26084.73017097  .00247790  00000+0  12184-2 0  9995
2 68189  53.1592 201.2587 0001242 106.4174 253.6986 15.80959353  2915
STARLINK-37071          
1 68190U 26050Z   26084.79188650  .00264698  00000+0  12970-2 0  9996
2 68190  53.1591 200.9319 0000894 109.4228 250.6891 15.80988515  3027
STARLINK-37091          
1 68191U 26050AA  26084.79113635  .00223533  00000+0  11018-2 0  9993
2 68191  53.1594 200.9265 0001038  63.1319 296.9810 15.80974886  3029
STARLINK-37098          
1 68192U 26050AB  26084.72717028  .00226627  00000+0  11172-2 0  9991
2 68192  53.1597 201.2379 0000914  87.2885 272.8242 15.80962841  3019
STARLINK-37090          
1 68193U 26050AC  26084.72567055  .00237554  00000+0  11695-2 0  9996
2 68193  53.1593 201.2277 0001329  73.3761 286.7408 15.80961563  3011
STARLINK-37093          
1 68194U 26050AD  26084.79263834  .00321751  00000+0  15644-2 0  9993
2 68194  53.1599 200.9360 0000944  54.3315 305.7796 15.81002094  3022
STARLINK-37058          
1 68195U 26050AE  26084.72642019  .00152637  00000+0  76125-3 0  9990
2 68195  53.1591 201.2328 0001051  80.5941 279.5200 15.80930827  1455
YAOGAN-50 02            
1 68196U 26051A   26084.53625441  .00000269  00000+0  74462-4 0  9997
2 68196 141.9853 283.6219 0001644 220.8348 139.2249 13.83268991  1401
CZ-6A R/B               
1 68197U 26051B   26084.82866583  .00001029  00000+0  12815-3 0  9992
2 68197 142.0323 290.1185 0186247 166.7682 193.8010 14.56366596  1518
