CCSDS_OMM_VERS = 2.0
CREATION_DATE  = 
ORIGINATOR     = 

OBJECT_NAME    = STARLINK-37079
OBJECT_ID      = 2026-050V
CENTER_NAME    = EARTH
REF_FRAME      = TEME
TIME_SYSTEM    = UTC
MEAN_ELEMENT_THEORY = SGP/SGP4

EPOCH          = 2026-03-25T19:05:43.102464
MEAN_MOTION    = 15.80983657
ECCENTRICITY   = .00008474
INCLINATION    = 53.1600
RA_OF_ASC_NODE = 200.9567
ARG_OF_PERICENTER = 72.1834
MEAN_ANOMALY   = 287.9281

EPHEMERIS_TYPE = 0
CLASSIFICATION_TYPE = U
NORAD_CAT_ID   = 68186
ELEMENT_SET_NO = 999
REV_AT_EPOCH   = 302
BSTAR          = .12709987E-2
MEAN_MOTION_DOT = .259149E-2
MEAN_MOTION_DDOT = 0

CCSDS_OMM_VERS = 2.0
CREATION_DATE  = 
ORIGINATOR     = 

OBJECT_NAME    = STARLINK-37006
OBJECT_ID      = 2026-050W
CENTER_NAME    = EARTH
REF_FRAME      = TEME
TIME_SYSTEM    = UTC
MEAN_ELEMENT_THEORY = SGP/SGP4

EPOCH          = 2026-03-25T17:33:35.250336
MEAN_MOTION    = 15.80902488
ECCENTRICITY   = .00011238
INCLINATION    = 53.1594
RA_OF_ASC_NODE = 201.2691
ARG_OF_PERICENTER = 85.0560
MEAN_ANOMALY   = 275.0591

EPHEMERIS_TYPE = 0
CLASSIFICATION_TYPE = U
NORAD_CAT_ID   = 68187
ELEMENT_SET_NO = 999
REV_AT_EPOCH   = 301
BSTAR          = .73084077E-3
MEAN_MOTION_DOT = .14621E-2
MEAN_MOTION_DDOT = 0

CCSDS_OMM_VERS = 2.0
CREATION_DATE  = 
ORIGINATOR     = 

OBJECT_NAME    = STARLINK-36340
OBJECT_ID      = 2026-050X
CENTER_NAME    = EARTH
REF_FRAME      = TEME
TIME_SYSTEM    = UTC
MEAN_ELEMENT_THEORY = SGP/SGP4

EPOCH          = 2026-03-25T17:32:31.784352
MEAN_MOTION    = 15.80965634
ECCENTRICITY   = .00012639
INCLINATION    = 53.1587
RA_OF_ASC_NODE = 201.2634
ARG_OF_PERICENTER = 81.1800
MEAN_ANOMALY   = 278.9366

EPHEMERIS_TYPE = 0
CLASSIFICATION_TYPE = U
NORAD_CAT_ID   = 68188
ELEMENT_SET_NO = 999
REV_AT_EPOCH   = 291
BSTAR          = .13880168E-2
MEAN_MOTION_DOT = .283648E-2
MEAN_MOTION_DDOT = 0

CCSDS_OMM_VERS = 2.0
CREATION_DATE  = 
ORIGINATOR     = 

OBJECT_NAME    = STARLINK-36305
OBJECT_ID      = 2026-050Y
CENTER_NAME    = EARTH
REF_FRAME      = TEME
TIME_SYSTEM    = UTC
MEAN_ELEMENT_THEORY = SGP/SGP4

EPOCH          = 2026-03-25T17:31:26.771808
MEAN_MOTION    = 15.80959353
ECCENTRICITY   = .00012425
INCLINATION    = 53.1592
RA_OF_ASC_NODE = 201.2587
ARG_OF_PERICENTER = 106.4174
MEAN_ANOMALY   = 253.6986

EPHEMERIS_TYPE = 0
CLASSIFICATION_TYPE = U
NORAD_CAT_ID   = 68189
ELEMENT_SET_NO = 999
REV_AT_EPOCH   = 291
BSTAR          = .12184267E-2
MEAN_MOTION_DOT = .24779E-2
MEAN_MOTION_DDOT = 0

CCSDS_OMM_VERS = 2.0
CREATION_DATE  = 
ORIGINATOR     = 

OBJECT_NAME    = STARLINK-37071
OBJECT_ID      = 2026-050Z
CENTER_NAME    = EARTH
REF_FRAME      = TEME
TIME_SYSTEM    = UTC
MEAN_ELEMENT_THEORY = SGP/SGP4

EPOCH          = 2026-03-25T19:00:18.993600
MEAN_MOTION    = 15.80988515
ECCENTRICITY   = .00008942
INCLINATION    = 53.1591
RA_OF_ASC_NODE = 200.9319
ARG_OF_PERICENTER = 109.4228
MEAN_ANOMALY   = 250.6891

EPHEMERIS_TYPE = 0
CLASSIFICATION_TYPE = U
NORAD_CAT_ID   = 68190
ELEMENT_SET_NO = 999
REV_AT_EPOCH   = 302
BSTAR          = .12970082E-2
MEAN_MOTION_DOT = .264698E-2
MEAN_MOTION_DDOT = 0

CCSDS_OMM_VERS = 2.0
CREATION_DATE  = 
ORIGINATOR     = 

OBJECT_NAME    = STARLINK-37091
OBJECT_ID      = 2026-050AA
CENTER_NAME    = EARTH
REF_FRAME      = TEME
TIME_SYSTEM    = UTC
MEAN_ELEMENT_THEORY = SGP/SGP4

EPOCH          = 2026-03-25T18:59:14.180640
MEAN_MOTION    = 15.80974886
ECCENTRICITY   = .00010389
INCLINATION    = 53.1594
RA_OF_ASC_NODE = 200.9265
ARG_OF_PERICENTER = 63.1319
MEAN_ANOMALY   = 296.9810

EPHEMERIS_TYPE = 0
CLASSIFICATION_TYPE = U
NORAD_CAT_ID   = 68191
ELEMENT_SET_NO = 999
REV_AT_EPOCH   = 302
BSTAR          = .11018138E-2
MEAN_MOTION_DOT = .223533E-2
MEAN_MOTION_DDOT = 0

CCSDS_OMM_VERS = 2.0
CREATION_DATE  = 
ORIGINATOR     = 

OBJECT_NAME    = STARLINK-37098
OBJECT_ID      = 2026-050AB
CENTER_NAME    = EARTH
REF_FRAME      = TEME
TIME_SYSTEM    = UTC
MEAN_ELEMENT_THEORY = SGP/SGP4

EPOCH          = 2026-03-25T17:27:07.512192
MEAN_MOTION    = 15.80962841
ECCENTRICITY   = .00009146
INCLINATION    = 53.1597
RA_OF_ASC_NODE = 201.2379
ARG_OF_PERICENTER = 87.2885
MEAN_ANOMALY   = 272.8242

EPHEMERIS_TYPE = 0
CLASSIFICATION_TYPE = U
NORAD_CAT_ID   = 68192
ELEMENT_SET_NO = 999
REV_AT_EPOCH   = 301
BSTAR          = .11172307E-2
MEAN_MOTION_DOT = .226627E-2
MEAN_MOTION_DDOT = 0

CCSDS_OMM_VERS = 2.0
CREATION_DATE  = 
ORIGINATOR     = 

OBJECT_NAME    = STARLINK-37090
OBJECT_ID      = 2026-050AC
CENTER_NAME    = EARTH
REF_FRAME      = TEME
TIME_SYSTEM    = UTC
MEAN_ELEMENT_THEORY = SGP/SGP4

EPOCH          = 2026-03-25T17:24:57.935520
MEAN_MOTION    = 15.80961563
ECCENTRICITY   = .0001329
INCLINATION    = 53.1593
RA_OF_ASC_NODE = 201.2277
ARG_OF_PERICENTER = 73.3761
MEAN_ANOMALY   = 286.7408

EPHEMERIS_TYPE = 0
CLASSIFICATION_TYPE = U
NORAD_CAT_ID   = 68193
ELEMENT_SET_NO = 999
REV_AT_EPOCH   = 301
BSTAR          = .11695168E-2
MEAN_MOTION_DOT = .237554E-2
MEAN_MOTION_DDOT = 0

CCSDS_OMM_VERS = 2.0
CREATION_DATE  = 
ORIGINATOR     = 

OBJECT_NAME    = STARLINK-37093
OBJECT_ID      = 2026-050AD
CENTER_NAME    = EARTH
REF_FRAME      = TEME
TIME_SYSTEM    = UTC
MEAN_ELEMENT_THEORY = SGP/SGP4

EPOCH          = 2026-03-25T19:01:23.952576
MEAN_MOTION    = 15.81002094
ECCENTRICITY   = .00009444
INCLINATION    = 53.1599
RA_OF_ASC_NODE = 200.9360
ARG_OF_PERICENTER = 54.3315
MEAN_ANOMALY   = 305.7796

EPHEMERIS_TYPE = 0
CLASSIFICATION_TYPE = U
NORAD_CAT_ID   = 68194
ELEMENT_SET_NO = 999
REV_AT_EPOCH   = 302
BSTAR          = .15643582E-2
MEAN_MOTION_DOT = .321751E-2
MEAN_MOTION_DDOT = 0

CCSDS_OMM_VERS = 2.0
CREATION_DATE  = 
ORIGINATOR     = 

OBJECT_NAME    = STARLINK-37058
OBJECT_ID      = 2026-050AE
CENTER_NAME    = EARTH
REF_FRAME      = TEME
TIME_SYSTEM    = UTC
MEAN_ELEMENT_THEORY = SGP/SGP4

EPOCH          = 2026-03-25T17:26:02.704416
MEAN_MOTION    = 15.80930827
ECCENTRICITY   = .00010511
INCLINATION    = 53.1591
RA_OF_ASC_NODE = 201.2328
ARG_OF_PERICENTER = 80.5941
MEAN_ANOMALY   = 279.5200

EPHEMERIS_TYPE = 0
CLASSIFICATION_TYPE = U
NORAD_CAT_ID   = 68195
ELEMENT_SET_NO = 999
REV_AT_EPOCH   = 145
BSTAR          = .7612509E-3
MEAN_MOTION_DOT = .152637E-2
MEAN_MOTION_DDOT = 0

CCSDS_OMM_VERS = 2.0
CREATION_DATE  = 
ORIGINATOR     = 

OBJECT_NAME    = YAOGAN-50 02
OBJECT_ID      = 2026-051A
CENTER_NAME    = EARTH
REF_FRAME      = TEME
TIME_SYSTEM    = UTC
MEAN_ELEMENT_THEORY = SGP/SGP4

EPOCH          = 2026-03-25T12:52:12.381024
MEAN_MOTION    = 13.83268991
ECCENTRICITY   = .00016441
INCLINATION    = 141.9853
RA_OF_ASC_NODE = 283.6219
ARG_OF_PERICENTER = 220.8348
MEAN_ANOMALY   = 139.2249

EPHEMERIS_TYPE = 0
CLASSIFICATION_TYPE = U
NORAD_CAT_ID   = 68196
ELEMENT_SET_NO = 999
REV_AT_EPOCH   = 140
BSTAR          = .74462102E-4
MEAN_MOTION_DOT = .269E-5
MEAN_MOTION_DDOT = 0

CCSDS_OMM_VERS = 2.0
CREATION_DATE  = 
ORIGINATOR     = 

OBJECT_NAME    = CZ-6A R/B
OBJECT_ID      = 2026-051B
CENTER_NAME    = EARTH
REF_FRAME      = TEME
TIME_SYSTEM    = UTC
MEAN_ELEMENT_THEORY = SGP/SGP4

EPOCH          = 2026-03-25T19:53:16.727712
MEAN_MOTION    = 14.56366596
ECCENTRICITY   = .01862477
INCLINATION    = 142.0323
RA_OF_ASC_NODE = 290.1185
ARG_OF_PERICENTER = 166.7682
MEAN_ANOMALY   = 193.8010

EPHEMERIS_TYPE = 0
CLASSIFICATION_TYPE = U
NORAD_CAT_ID   = 68197
ELEMENT_SET_NO = 999
REV_AT_EPOCH   = 151
BSTAR          = .12814607E-3
MEAN_MOTION_DOT = .1029E-4
MEAN_MOTION_DDOT = 0

